{
  "type": "FeatureCollection",
  "features": [
    {
      "type": "Feature",
      "properties": {
        "id": "amazonas-solimoes",
        "name": "Rio Amazonas / Solimões",
        "kind": "river",
        "sourceType": "official-inspired",
        "sourceInspiration": "BIT Mapas Aquaviário + ANTAQ vias interiores",
        "sourceNotes": "Geometria curvilínea fictícia para demo; não é shapefile oficial.",
        "confidence": "medium",
        "mockLevel": "enriched",
        "lastReviewed": "2026-05-19",
        "visualPurpose": "main-river-backbone",
        "corridorId": "amazonas",
        "waterwayCode": "HN-100",
        "state": "AM",
        "strategicRole": "eixo-logistico-principal",
        "operationalStatus": "active",
        "navigabilityRisk": "medium",
        "importance": "critical",
        "referenceContext": "Eixo Amazonas-Solimões — inspiração BIT/ANTAQ HN-100"
      },
      "geometry": {
        "type": "LineString",
        "coordinates": [
          [
            -56.11176,
            -1.79895
          ],
          [
            -56.2005,
            -1.82925
          ],
          [
            -56.28942,
            -1.85738
          ],
          [
            -56.37863,
            -1.88194
          ],
          [
            -56.46823,
            -1.90177
          ],
          [
            -56.5583,
            -1.91602
          ],
          [
            -56.64886,
            -1.92425
          ],
          [
            -56.73993,
            -1.92639
          ],
          [
            -56.83147,
            -1.92281
          ],
          [
            -56.92343,
            -1.91427
          ],
          [
            -57.0157,
            -1.90187
          ],
          [
            -57.10818,
            -1.88695
          ],
          [
            -57.20524,
            -1.81888
          ],
          [
            -57.14818,
            -1.79898
          ],
          [
            -57.09068,
            -1.78426
          ],
          [
            -57.03268,
            -1.77538
          ],
          [
            -56.97416,
            -1.77262
          ],
          [
            -56.91512,
            -1.7758
          ],
          [
            -56.85562,
            -1.78439
          ],
          [
            -56.79574,
            -1.79744
          ],
          [
            -56.73558,
            -1.81374
          ],
          [
            -56.67527,
            -1.83183
          ],
          [
            -56.61494,
            -1.85013
          ],
          [
            -56.55473,
            -1.86706
          ],
          [
            -56.50362,
            -1.73138
          ],
          [
            -56.29949,
            -1.72211
          ],
          [
            -56.09511,
            -1.71895
          ],
          [
            -55.8905,
            -1.72153
          ],
          [
            -55.68568,
            -1.72912
          ],
          [
            -55.48071,
            -1.74063
          ],
          [
            -55.27562,
            -1.75472
          ],
          [
            -55.0705,
            -1.76984
          ],
          [
            -54.8654,
            -1.78441
          ],
          [
            -54.66038,
            -1.79685
          ],
          [
            -54.45551,
            -1.80577
          ],
          [
            -54.25083,
            -1.80997
          ],
          [
            -54.04681,
            -1.7998
          ],
          [
            -54.10985,
            -1.78885
          ],
          [
            -54.17306,
            -1.77338
          ],
          [
            -54.23642,
            -1.75461
          ],
          [
            -54.29984,
            -1.73399
          ],
          [
            -54.36328,
            -1.7131
          ],
          [
            -54.42666,
            -1.69354
          ],
          [
            -54.48993,
            -1.6768
          ],
          [
            -54.55303,
            -1.66419
          ],
          [
            -54.61593,
            -1.65675
          ],
          [
            -54.67859,
            -1.65516
          ],
          [
            -54.74101,
            -1.65969
          ],
          [
            -54.79811,
            -1.71158
          ],
          [
            -54.68087,
            -1.73976
          ],
          [
            -54.5637,
            -1.76903
          ],
          [
            -54.44649,
            -1.7978
          ],
          [
            -54.32919,
            -1.8245
          ],
          [
            -54.21171,
            -1.84772
          ],
          [
            -54.09401,
            -1.86627
          ],
          [
            -53.97603,
            -1.87928
          ],
          [
            -53.85775,
            -1.88626
          ],
          [
            -53.73917,
            -1.88713
          ],
          [
            -53.62031,
            -1.88224
          ],
          [
            -53.5012,
            -1.87231
          ],
          [
            -53.37936,
            -1.83861
          ],
          [
            -53.33026,
            -1.85909
          ],
          [
            -53.28126,
            -1.87678
          ],
          [
            -53.2324,
            -1.89038
          ],
          [
            -53.18372,
            -1.89885
          ],
          [
            -53.13524,
            -1.90149
          ],
          [
            -53.08697,
            -1.898
          ],
          [
            -53.0389,
            -1.88852
          ],
          [
            -52.99103,
            -1.87357
          ],
          [
            -52.94331,
            -1.85407
          ],
          [
            -52.89571,
            -1.83122
          ],
          [
            -52.84817,
            -1.80647
          ],
          [
            -52.79889,
            -1.8681
          ],
          [
            -52.59451,
            -1.87767
          ],
          [
            -52.39022,
            -1.88172
          ],
          [
            -52.18603,
            -1.87975
          ],
          [
            -51.98195,
            -1.87166
          ],
          [
            -51.77795,
            -1.85778
          ],
          [
            -51.57404,
            -1.83882
          ],
          [
            -51.37019,
            -1.81586
          ],
          [
            -51.16639,
            -1.79022
          ],
          [
            -50.96261,
            -1.76344
          ],
          [
            -50.75882,
            -1.7371
          ],
          [
            -50.55499,
            -1.71277
          ],
          [
            -50.34368,
            -1.6704
          ],
          [
            -50.41462,
            -1.667
          ],
          [
            -50.48599,
            -1.6696
          ],
          [
            -50.55775,
            -1.67768
          ],
          [
            -50.62983,
            -1.69035
          ],
          [
            -50.70215,
            -1.7064
          ],
          [
            -50.7746,
            -1.7244
          ],
          [
            -50.84709,
            -1.74278
          ],
          [
            -50.91949,
            -1.75995
          ],
          [
            -50.99169,
            -1.7744
          ],
          [
            -51.06361,
            -1.7848
          ],
          [
            -51.13517,
            -1.7901
          ],
          [
            -51.16879,
            -1.63191
          ],
          [
            -51.21523,
            -1.62763
          ],
          [
            -51.26337,
            -1.62704
          ],
          [
            -51.31263,
            -1.62892
          ],
          [
            -51.3624,
            -1.6319
          ],
          [
            -51.412,
            -1.63452
          ],
          [
            -51.46079,
            -1.63536
          ],
          [
            -51.50816,
            -1.6331
          ],
          [
            -51.55361,
            -1.62666
          ],
          [
            -51.59677,
            -1.61522
          ],
          [
            -51.63742,
            -1.59831
          ],
          [
            -51.67553,
            -1.57584
          ],
          [
            -51.66946,
            -1.50748
          ],
          [
            -51.5777,
            -1.44766
          ],
          [
            -51.4861,
            -1.38743
          ],
          [
            -51.39408,
            -1.32828
          ],
          [
            -51.3011,
            -1.27163
          ],
          [
            -51.20668,
            -1.21874
          ],
          [
            -51.11044,
            -1.17058
          ],
          [
            -51.01213,
            -1.12784
          ],
          [
            -50.91163,
            -1.09082
          ],
          [
            -50.80898,
            -1.05941
          ],
          [
            -50.70435,
            -1.03316
          ],
          [
            -50.59806,
            -1.01123
          ],
          [
            -50.46873,
            -0.99432
          ],
          [
            -50.37856,
            -1.01076
          ],
          [
            -50.28973,
            -1.03027
          ],
          [
            -50.20274,
            -1.05397
          ],
          [
            -50.11794,
            -1.08267
          ],
          [
            -50.03556,
            -1.11688
          ],
          [
            -49.95564,
            -1.15669
          ],
          [
            -49.87806,
            -1.20183
          ],
          [
            -49.80254,
            -1.25168
          ],
          [
            -49.72867,
            -1.30528
          ],
          [
            -49.65591,
            -1.36141
          ],
          [
            -49.58366,
            -1.4187
          ],
          [
            -49.48547,
            -1.52264
          ],
          [
            -49.51254,
            -1.53897
          ],
          [
            -49.54074,
            -1.54963
          ],
          [
            -49.57014,
            -1.5543
          ],
          [
            -49.60072,
            -1.55306
          ],
          [
            -49.63239,
            -1.54638
          ],
          [
            -49.66498,
            -1.53512
          ],
          [
            -49.69824,
            -1.52045
          ],
          [
            -49.73192,
            -1.50375
          ],
          [
            -49.76568,
            -1.48658
          ],
          [
            -49.79924,
            -1.47049
          ],
          [
            -49.83227,
            -1.45698
          ],
          [
            -49.84126,
            -1.43052
          ],
          [
            -49.73073,
            -1.44547
          ],
          [
            -49.62076,
            -1.46624
          ],
          [
            -49.51129,
            -1.49214
          ],
          [
            -49.40223,
            -1.52216
          ],
          [
            -49.29344,
            -1.55499
          ],
          [
            -49.18478,
            -1.58912
          ],
          [
            -49.07609,
            -1.62297
          ],
          [
            -48.96722,
            -1.65497
          ],
          [
            -48.85803,
            -1.68368
          ],
          [
            -48.74839,
            -1.70788
          ],
          [
            -48.63823,
            -1.72666
          ],
          [
            -48.54894,
            -1.71212
          ],
          [
            -48.75232,
            -1.59407
          ],
          [
            -48.95416,
            -1.47285
          ],
          [
            -49.15507,
            -1.34973
          ],
          [
            -49.35575,
            -1.22611
          ],
          [
            -49.55689,
            -1.10344
          ],
          [
            -49.75915,
            -0.9831
          ],
          [
            -49.96314,
            -0.86629
          ],
          [
            -50.16932,
            -0.75399
          ],
          [
            -50.37801,
            -0.64687
          ],
          [
            -50.58937,
            -0.54525
          ],
          [
            -50.80338,
            -0.44906
          ],
          [
            -51.05,
            -0.42
          ]
        ]
      }
    },
    {
      "type": "Feature",
      "properties": {
        "id": "madeira",
        "name": "Rio Madeira",
        "kind": "river",
        "sourceType": "official-inspired",
        "sourceInspiration": "ANTAQ fluxos hidroviários Madeira",
        "sourceNotes": "Geometria fictícia determinística; não substitui shapefile oficial.",
        "confidence": "medium",
        "mockLevel": "enriched",
        "lastReviewed": "2026-05-19",
        "visualPurpose": "tributary-main",
        "corridorId": "madeira",
        "state": "RO",
        "strategicRole": "corredor-graos-combustiveis",
        "operationalStatus": "active",
        "navigabilityRisk": "high",
        "importance": "high"
      },
      "geometry": {
        "type": "LineString",
        "coordinates": [
          [
            -58.96012,
            -2.30531
          ],
          [
            -59.01203,
            -2.30457
          ],
          [
            -59.06226,
            -2.29966
          ],
          [
            -59.11032,
            -2.28931
          ],
          [
            -59.1559,
            -2.27275
          ],
          [
            -59.19895,
            -2.24986
          ],
          [
            -59.23964,
            -2.22111
          ],
          [
            -59.27842,
            -2.18755
          ],
          [
            -59.31588,
            -2.15071
          ],
          [
            -59.35277,
            -2.11243
          ],
          [
            -59.40753,
            -2.03975
          ],
          [
            -59.3285,
            -2.02202
          ],
          [
            -59.24863,
            -2.01094
          ],
          [
            -59.16792,
            -2.00663
          ],
          [
            -59.08644,
            -2.00851
          ],
          [
            -59.00432,
            -2.01544
          ],
          [
            -58.92178,
            -2.02575
          ],
          [
            -58.83907,
            -2.03745
          ],
          [
            -58.75645,
            -2.04843
          ],
          [
            -58.67417,
            -2.05662
          ],
          [
            -58.60315,
            -1.93066
          ],
          [
            -58.49287,
            -1.93183
          ],
          [
            -58.38231,
            -1.93919
          ],
          [
            -58.27152,
            -1.95153
          ],
          [
            -58.16058,
            -1.96714
          ],
          [
            -58.04959,
            -1.98401
          ],
          [
            -57.93864,
            -2
          ],
          [
            -57.82782,
            -2.01305
          ],
          [
            -57.71721,
            -2.0214
          ],
          [
            -57.60688,
            -2.02374
          ],
          [
            -57.50571,
            -1.90052
          ],
          [
            -57.36493,
            -1.90205
          ],
          [
            -57.2238,
            -1.9067
          ],
          [
            -57.08254,
            -1.91245
          ],
          [
            -56.9414,
            -1.91719
          ],
          [
            -56.80061,
            -1.91887
          ],
          [
            -56.66038,
            -1.91576
          ],
          [
            -56.52084,
            -1.90661
          ],
          [
            -56.38207,
            -1.89075
          ],
          [
            -56.24408,
            -1.86815
          ],
          [
            -56.1125,
            -1.79
          ]
        ]
      }
    },
    {
      "type": "Feature",
      "properties": {
        "id": "tapajos",
        "name": "Rio Tapajós",
        "kind": "river",
        "sourceType": "official-inspired",
        "sourceInspiration": "ANTAQ Miritituba / Tapajós",
        "sourceNotes": "Geometria fictícia determinística; não substitui shapefile oficial.",
        "confidence": "medium",
        "mockLevel": "enriched",
        "lastReviewed": "2026-05-19",
        "visualPurpose": "tributary-main",
        "corridorId": "tapajos-teles-pires",
        "state": "PA",
        "strategicRole": "eixo-miritituba-santarem",
        "operationalStatus": "active",
        "navigabilityRisk": "high",
        "importance": "high"
      },
      "geometry": {
        "type": "LineString",
        "coordinates": [
          [
            -55.36815,
            -2.22556
          ],
          [
            -55.34271,
            -2.20188
          ],
          [
            -55.31504,
            -2.18487
          ],
          [
            -55.28493,
            -2.17522
          ],
          [
            -55.25237,
            -2.17289
          ],
          [
            -55.21763,
            -2.17712
          ],
          [
            -55.18115,
            -2.18654
          ],
          [
            -55.14359,
            -2.19922
          ],
          [
            -55.10568,
            -2.21297
          ],
          [
            -55.06819,
            -2.22544
          ],
          [
            -55.0747,
            -2.10452
          ],
          [
            -55.01942,
            -2.08739
          ],
          [
            -54.96175,
            -2.07755
          ],
          [
            -54.90195,
            -2.07422
          ],
          [
            -54.84049,
            -2.07596
          ],
          [
            -54.778,
            -2.08084
          ],
          [
            -54.71522,
            -2.08661
          ],
          [
            -54.65291,
            -2.09095
          ],
          [
            -54.59178,
            -2.09168
          ],
          [
            -54.53243,
            -2.08695
          ],
          [
            -54.5053,
            -1.93115
          ],
          [
            -54.37408,
            -1.93696
          ],
          [
            -54.24246,
            -1.94797
          ],
          [
            -54.11061,
            -1.96211
          ],
          [
            -53.97869,
            -1.97702
          ],
          [
            -53.8469,
            -1.99027
          ],
          [
            -53.71542,
            -1.99957
          ],
          [
            -53.58438,
            -2.00305
          ],
          [
            -53.45389,
            -1.99937
          ],
          [
            -53.32401,
            -1.98793
          ],
          [
            -53.20189,
            -1.86953
          ],
          [
            -53.10351,
            -1.88782
          ],
          [
            -53.00509,
            -1.90673
          ],
          [
            -52.90679,
            -1.9238
          ],
          [
            -52.80874,
            -1.93677
          ],
          [
            -52.71105,
            -1.9438
          ],
          [
            -52.61382,
            -1.94361
          ],
          [
            -52.51707,
            -1.93562
          ],
          [
            -52.42079,
            -1.92003
          ],
          [
            -52.32492,
            -1.89779
          ],
          [
            -52.23125,
            -1.84
          ]
        ]
      }
    },
    {
      "type": "Feature",
      "properties": {
        "id": "tocantins",
        "name": "Rio Tocantins",
        "kind": "river",
        "sourceType": "official-inspired",
        "sourceInspiration": "BIT hidroviário Tocantins",
        "sourceNotes": "Geometria fictícia determinística; não substitui shapefile oficial.",
        "confidence": "medium",
        "mockLevel": "enriched",
        "lastReviewed": "2026-05-19",
        "visualPurpose": "tributary-main",
        "corridorId": "tocantins-araguaia",
        "state": "PA",
        "strategicRole": "eixo-graos-tocantins",
        "operationalStatus": "attention",
        "navigabilityRisk": "high",
        "importance": "high"
      },
      "geometry": {
        "type": "LineString",
        "coordinates": [
          [
            -51.73449,
            -1.93834
          ],
          [
            -51.70301,
            -1.92666
          ],
          [
            -51.67051,
            -1.92167
          ],
          [
            -51.63698,
            -1.92337
          ],
          [
            -51.60252,
            -1.9311
          ],
          [
            -51.56733,
            -1.94362
          ],
          [
            -51.53166,
            -1.95921
          ],
          [
            -51.49583,
            -1.97585
          ],
          [
            -51.46016,
            -1.99144
          ],
          [
            -51.42497,
            -2.00394
          ],
          [
            -51.42054,
            -1.88426
          ],
          [
            -51.33839,
            -1.86615
          ],
          [
            -51.25443,
            -1.85381
          ],
          [
            -51.16907,
            -1.84599
          ],
          [
            -51.08281,
            -1.84101
          ],
          [
            -50.99628,
            -1.83691
          ],
          [
            -50.91011,
            -1.83164
          ],
          [
            -50.82491,
            -1.82328
          ],
          [
            -50.74119,
            -1.81019
          ],
          [
            -50.65931,
            -1.79121
          ],
          [
            -50.58897,
            -1.65402
          ],
          [
            -50.56823,
            -1.67778
          ],
          [
            -50.54815,
            -1.70431
          ],
          [
            -50.52826,
            -1.73158
          ],
          [
            -50.50805,
            -1.75753
          ],
          [
            -50.48705,
            -1.78019
          ],
          [
            -50.46487,
            -1.79794
          ],
          [
            -50.44123,
            -1.80963
          ],
          [
            -50.41601,
            -1.8147
          ],
          [
            -50.38922,
            -1.81324
          ],
          [
            -50.35277,
            -1.75423
          ],
          [
            -50.29331,
            -1.74993
          ],
          [
            -50.23451,
            -1.74427
          ],
          [
            -50.17723,
            -1.73545
          ],
          [
            -50.12217,
            -1.72198
          ],
          [
            -50.06984,
            -1.70284
          ],
          [
            -50.02046,
            -1.67755
          ],
          [
            -49.97397,
            -1.64623
          ],
          [
            -49.93003,
            -1.60961
          ],
          [
            -49.88804,
            -1.56891
          ],
          [
            -49.8536,
            -1.55691
          ],
          [
            -49.72209,
            -1.58636
          ],
          [
            -49.59006,
            -1.61059
          ],
          [
            -49.45741,
            -1.6285
          ],
          [
            -49.3241,
            -1.6396
          ],
          [
            -49.19014,
            -1.64409
          ],
          [
            -49.05562,
            -1.64279
          ],
          [
            -48.92067,
            -1.6371
          ],
          [
            -48.78548,
            -1.62887
          ],
          [
            -48.65023,
            -1.62015
          ],
          [
            -48.51875,
            -1.65
          ]
        ]
      }
    },
    {
      "type": "Feature",
      "properties": {
        "id": "araguaia-branch",
        "name": "Ramo Araguaia (mock)",
        "kind": "tributary",
        "sourceType": "domain-inspired",
        "sourceInspiration": "Domain-inspired confluence",
        "sourceNotes": "Geometria fictícia determinística; não substitui shapefile oficial.",
        "confidence": "medium",
        "mockLevel": "enriched",
        "lastReviewed": "2026-05-19",
        "visualPurpose": "tributary-context",
        "corridorId": "tocantins-araguaia",
        "state": "PA",
        "importance": "medium"
      },
      "geometry": {
        "type": "LineString",
        "coordinates": [
          [
            -51.69293,
            -2.03741
          ],
          [
            -51.71513,
            -2.05578
          ],
          [
            -51.74217,
            -2.06852
          ],
          [
            -51.77324,
            -2.07653
          ],
          [
            -51.80697,
            -2.08145
          ],
          [
            -51.84154,
            -2.08539
          ],
          [
            -51.87501,
            -2.09061
          ],
          [
            -51.90563,
            -2.09916
          ],
          [
            -51.88016,
            -2.11032
          ],
          [
            -51.83561,
            -2.14623
          ],
          [
            -51.79326,
            -2.18652
          ],
          [
            -51.75193,
            -2.22886
          ],
          [
            -51.71031,
            -2.27062
          ],
          [
            -51.66712,
            -2.30924
          ],
          [
            -51.62132,
            -2.34264
          ],
          [
            -51.57228,
            -2.36955
          ],
          [
            -51.4925,
            -2.32999
          ],
          [
            -51.44914,
            -2.36646
          ],
          [
            -51.40592,
            -2.40328
          ],
          [
            -51.36179,
            -2.4377
          ],
          [
            -51.31587,
            -2.46733
          ],
          [
            -51.26754,
            -2.49051
          ],
          [
            -51.21653,
            -2.50658
          ],
          [
            -51.16301,
            -2.51593
          ],
          [
            -51.1,
            -2.5
          ]
        ]
      }
    },
    {
      "type": "Feature",
      "properties": {
        "id": "para-estuario",
        "name": "Estuário do Pará / Baía do Marajó",
        "kind": "river",
        "sourceType": "official-inspired",
        "sourceInspiration": "ANTAQ portos Belém-Barcarena",
        "sourceNotes": "Geometria fictícia determinística; não substitui shapefile oficial.",
        "confidence": "medium",
        "mockLevel": "enriched",
        "lastReviewed": "2026-05-19",
        "visualPurpose": "estuary-main",
        "corridorId": "barra-norte",
        "state": "PA",
        "strategicRole": "acesso-belem-barcarena",
        "operationalStatus": "active",
        "navigabilityRisk": "medium",
        "importance": "critical"
      },
      "geometry": {
        "type": "LineString",
        "coordinates": [
          [
            -48.52068,
            -1.66977
          ],
          [
            -48.65665,
            -1.68595
          ],
          [
            -48.79216,
            -1.69733
          ],
          [
            -48.92697,
            -1.70154
          ],
          [
            -49.06091,
            -1.69688
          ],
          [
            -49.1939,
            -1.68254
          ],
          [
            -49.32596,
            -1.65866
          ],
          [
            -49.4572,
            -1.62629
          ],
          [
            -49.58779,
            -1.58734
          ],
          [
            -49.71798,
            -1.54434
          ],
          [
            -49.86901,
            -1.44732
          ],
          [
            -49.80824,
            -1.41414
          ],
          [
            -49.74519,
            -1.38967
          ],
          [
            -49.67968,
            -1.37462
          ],
          [
            -49.61176,
            -1.36881
          ],
          [
            -49.5417,
            -1.37115
          ],
          [
            -49.47001,
            -1.37973
          ],
          [
            -49.39734,
            -1.39207
          ],
          [
            -49.32444,
            -1.40527
          ],
          [
            -49.25208,
            -1.41639
          ],
          [
            -49.19675,
            -1.2503
          ],
          [
            -49.10484,
            -1.256
          ],
          [
            -49.01323,
            -1.27119
          ],
          [
            -48.9219,
            -1.29468
          ],
          [
            -48.83078,
            -1.32447
          ],
          [
            -48.73977,
            -1.35793
          ],
          [
            -48.64879,
            -1.39208
          ],
          [
            -48.55772,
            -1.42388
          ],
          [
            -48.46649,
            -1.4505
          ],
          [
            -48.37502,
            -1.46963
          ],
          [
            -48.25602,
            -1.29982
          ],
          [
            -48.23529,
            -1.32795
          ],
          [
            -48.21632,
            -1.36196
          ],
          [
            -48.19834,
            -1.3993
          ],
          [
            -48.18051,
            -1.4371
          ],
          [
            -48.16193,
            -1.47244
          ],
          [
            -48.14183,
            -1.50265
          ],
          [
            -48.11953,
            -1.52555
          ],
          [
            -48.09462,
            -1.53969
          ],
          [
            -48.0669,
            -1.54446
          ],
          [
            -48.03844,
            -1.4388
          ],
          [
            -47.99337,
            -1.43226
          ],
          [
            -47.9481,
            -1.4259
          ],
          [
            -47.90497,
            -1.41778
          ],
          [
            -47.86613,
            -1.40616
          ],
          [
            -47.83329,
            -1.38963
          ],
          [
            -47.8076,
            -1.36726
          ],
          [
            -47.78948,
            -1.3387
          ],
          [
            -47.77863,
            -1.3042
          ],
          [
            -47.77404,
            -1.26459
          ],
          [
            -47.8,
            -1.2
          ]
        ]
      }
    }
  ]
}
