{
  "type": "FeatureCollection",
  "features": [
    {
      "type": "Feature",
      "properties": {
        "id": "corridor-amazonas-hn100",
        "name": "HN-100 Amazonas-Solimões",
        "kind": "corridor",
        "corridorId": "amazonas",
        "classification": "HN-100",
        "sourceType": "official-inspired",
        "sourceInspiration": "BIT HN-100 + ANTAQ Amazonas",
        "sourceNotes": "Geometria fictícia determinística; não substitui shapefile oficial.",
        "confidence": "medium",
        "mockLevel": "enriched",
        "lastReviewed": "2026-05-19",
        "visualPurpose": "navigable-corridor",
        "waterwayCode": "HN-100",
        "waterwayFamily": "amazonas-solimoes",
        "region": "Arco Norte",
        "navigability": "class-iii-mock",
        "navigabilityRisk": "medium",
        "dredgingPriority": "medium",
        "drySeasonRisk": "medium",
        "cargoProfiles": "general",
        "strategicRole": "eixo-dominante",
        "visualPriority": "high",
        "referenceContext": "Corredor classificado HN-100 — mock enriched",
        "importance": "critical"
      },
      "geometry": {
        "type": "LineString",
        "coordinates": [
          [
            -56.11201,
            -1.79596
          ],
          [
            -56.18897,
            -1.81101
          ],
          [
            -56.266,
            -1.82533
          ],
          [
            -56.34312,
            -1.83852
          ],
          [
            -56.42036,
            -1.85025
          ],
          [
            -56.49774,
            -1.86024
          ],
          [
            -56.57528,
            -1.86832
          ],
          [
            -56.65299,
            -1.87442
          ],
          [
            -56.73086,
            -1.87853
          ],
          [
            -56.80888,
            -1.88079
          ],
          [
            -56.88704,
            -1.88139
          ],
          [
            -56.96532,
            -1.88063
          ],
          [
            -57.04367,
            -1.87888
          ],
          [
            -57.12208,
            -1.87653
          ],
          [
            -57.20245,
            -1.85141
          ],
          [
            -57.15292,
            -1.84166
          ],
          [
            -57.10324,
            -1.83362
          ],
          [
            -57.0534,
            -1.82748
          ],
          [
            -57.00339,
            -1.82332
          ],
          [
            -56.95321,
            -1.82115
          ],
          [
            -56.90287,
            -1.82085
          ],
          [
            -56.85238,
            -1.82223
          ],
          [
            -56.80178,
            -1.82501
          ],
          [
            -56.75108,
            -1.82882
          ],
          [
            -56.70033,
            -1.83326
          ],
          [
            -56.64957,
            -1.8379
          ],
          [
            -56.59882,
            -1.84228
          ],
          [
            -56.54814,
            -1.84598
          ],
          [
            -56.50162,
            -1.78032
          ],
          [
            -56.32662,
            -1.7731
          ],
          [
            -56.15154,
            -1.76788
          ],
          [
            -55.97639,
            -1.76455
          ],
          [
            -55.80116,
            -1.76293
          ],
          [
            -55.62588,
            -1.76273
          ],
          [
            -55.45055,
            -1.76362
          ],
          [
            -55.2752,
            -1.76518
          ],
          [
            -55.09983,
            -1.76699
          ],
          [
            -54.92447,
            -1.76859
          ],
          [
            -54.74914,
            -1.76954
          ],
          [
            -54.57386,
            -1.76945
          ],
          [
            -54.39863,
            -1.76794
          ],
          [
            -54.22346,
            -1.76475
          ],
          [
            -54.04862,
            -1.7545
          ],
          [
            -54.10241,
            -1.75129
          ],
          [
            -54.15625,
            -1.74662
          ],
          [
            -54.21014,
            -1.74082
          ],
          [
            -54.26406,
            -1.73431
          ],
          [
            -54.31799,
            -1.7275
          ],
          [
            -54.37191,
            -1.72086
          ],
          [
            -54.42581,
            -1.71482
          ],
          [
            -54.47967,
            -1.70979
          ],
          [
            -54.53347,
            -1.70614
          ],
          [
            -54.58721,
            -1.70414
          ],
          [
            -54.64087,
            -1.70402
          ],
          [
            -54.69445,
            -1.70588
          ],
          [
            -54.74795,
            -1.70973
          ],
          [
            -54.79925,
            -1.73475
          ],
          [
            -54.69824,
            -1.74835
          ],
          [
            -54.59726,
            -1.76228
          ],
          [
            -54.49626,
            -1.7761
          ],
          [
            -54.39524,
            -1.78936
          ],
          [
            -54.29417,
            -1.80165
          ],
          [
            -54.19304,
            -1.81261
          ],
          [
            -54.09182,
            -1.82193
          ],
          [
            -53.99051,
            -1.82939
          ],
          [
            -53.88911,
            -1.83489
          ],
          [
            -53.78761,
            -1.83838
          ],
          [
            -53.68601,
            -1.83995
          ],
          [
            -53.58432,
            -1.83976
          ],
          [
            -53.48257,
            -1.83808
          ],
          [
            -53.37965,
            -1.83022
          ],
          [
            -53.33793,
            -1.83713
          ],
          [
            -53.29625,
            -1.84312
          ],
          [
            -53.25461,
            -1.8478
          ],
          [
            -53.21302,
            -1.85087
          ],
          [
            -53.1715,
            -1.85211
          ],
          [
            -53.13005,
            -1.85138
          ],
          [
            -53.08867,
            -1.84865
          ],
          [
            -53.04735,
            -1.84398
          ],
          [
            -53.00609,
            -1.83753
          ],
          [
            -52.96489,
            -1.82956
          ],
          [
            -52.92373,
            -1.8204
          ],
          [
            -52.8826,
            -1.81042
          ],
          [
            -52.84148,
            -1.80007
          ],
          [
            -52.79949,
            -1.83154
          ],
          [
            -52.62441,
            -1.83336
          ],
          [
            -52.44936,
            -1.83337
          ],
          [
            -52.27435,
            -1.83142
          ],
          [
            -52.09937,
            -1.82746
          ],
          [
            -51.92441,
            -1.82156
          ],
          [
            -51.74949,
            -1.81385
          ],
          [
            -51.5746,
            -1.8046
          ],
          [
            -51.39972,
            -1.79411
          ],
          [
            -51.22486,
            -1.78276
          ],
          [
            -51.05001,
            -1.771
          ],
          [
            -50.87515,
            -1.75925
          ],
          [
            -50.70029,
            -1.74797
          ],
          [
            -50.52541,
            -1.73758
          ],
          [
            -50.34718,
            -1.7201
          ],
          [
            -50.40796,
            -1.71671
          ],
          [
            -50.46888,
            -1.71527
          ],
          [
            -50.52992,
            -1.71564
          ],
          [
            -50.59107,
            -1.71759
          ],
          [
            -50.65232,
            -1.72082
          ],
          [
            -50.71363,
            -1.72493
          ],
          [
            -50.77497,
            -1.72951
          ],
          [
            -50.83631,
            -1.73411
          ],
          [
            -50.89762,
            -1.73829
          ],
          [
            -50.95887,
            -1.74163
          ],
          [
            -51.02004,
            -1.74374
          ],
          [
            -51.08109,
            -1.7443
          ],
          [
            -51.14202,
            -1.74307
          ],
          [
            -51.18661,
            -1.67078
          ],
          [
            -51.22344,
            -1.66062
          ],
          [
            -51.26081,
            -1.65164
          ],
          [
            -51.29857,
            -1.64351
          ],
          [
            -51.33655,
            -1.63585
          ],
          [
            -51.37456,
            -1.62825
          ],
          [
            -51.41241,
            -1.62032
          ],
          [
            -51.44992,
            -1.61165
          ],
          [
            -51.48694,
            -1.60189
          ],
          [
            -51.52332,
            -1.59075
          ],
          [
            -51.55896,
            -1.578
          ],
          [
            -51.5938,
            -1.56348
          ],
          [
            -51.6278,
            -1.54714
          ],
          [
            -51.66098,
            -1.52902
          ],
          [
            -51.676,
            -1.49044
          ],
          [
            -51.59344,
            -1.44934
          ],
          [
            -51.51093,
            -1.40813
          ],
          [
            -51.4283,
            -1.36723
          ],
          [
            -51.3454,
            -1.32704
          ],
          [
            -51.26208,
            -1.28793
          ],
          [
            -51.17823,
            -1.25022
          ],
          [
            -51.09375,
            -1.21414
          ],
          [
            -51.00858,
            -1.17986
          ],
          [
            -50.92269,
            -1.14745
          ],
          [
            -50.8361,
            -1.11688
          ],
          [
            -50.74884,
            -1.08805
          ],
          [
            -50.661,
            -1.06075
          ],
          [
            -50.57267,
            -1.0347
          ],
          [
            -50.47424,
            -1.00686
          ],
          [
            -50.40104,
            -1.0303
          ],
          [
            -50.3283,
            -1.05476
          ],
          [
            -50.25614,
            -1.08055
          ],
          [
            -50.18468,
            -1.10793
          ],
          [
            -50.11398,
            -1.13707
          ],
          [
            -50.04409,
            -1.16803
          ],
          [
            -49.975,
            -1.20081
          ],
          [
            -49.90666,
            -1.2353
          ],
          [
            -49.83898,
            -1.27132
          ],
          [
            -49.77186,
            -1.3086
          ],
          [
            -49.70515,
            -1.34681
          ],
          [
            -49.63868,
            -1.38557
          ],
          [
            -49.57228,
            -1.42448
          ],
          [
            -49.49333,
            -1.48336
          ],
          [
            -49.51758,
            -1.49211
          ],
          [
            -49.5422,
            -1.49901
          ],
          [
            -49.56721,
            -1.50394
          ],
          [
            -49.59261,
            -1.50693
          ],
          [
            -49.61839,
            -1.50806
          ],
          [
            -49.64449,
            -1.50754
          ],
          [
            -49.67087,
            -1.50563
          ],
          [
            -49.69746,
            -1.50269
          ],
          [
            -49.72418,
            -1.49912
          ],
          [
            -49.75093,
            -1.49534
          ],
          [
            -49.77764,
            -1.49179
          ],
          [
            -49.80422,
            -1.4889
          ],
          [
            -49.83059,
            -1.48707
          ],
          [
            -49.84613,
            -1.48037
          ],
          [
            -49.75122,
            -1.4915
          ],
          [
            -49.6565,
            -1.50452
          ],
          [
            -49.56194,
            -1.51925
          ],
          [
            -49.46752,
            -1.53542
          ],
          [
            -49.37321,
            -1.55267
          ],
          [
            -49.27897,
            -1.57062
          ],
          [
            -49.18475,
            -1.58882
          ],
          [
            -49.09051,
            -1.60682
          ],
          [
            -48.99621,
            -1.6242
          ],
          [
            -48.90181,
            -1.64055
          ],
          [
            -48.80728,
            -1.6555
          ],
          [
            -48.71258,
            -1.66879
          ],
          [
            -48.61769,
            -1.6802
          ],
          [
            -48.53159,
            -1.67642
          ],
          [
            -48.70943,
            -1.58247
          ],
          [
            -48.88678,
            -1.4875
          ],
          [
            -49.0638,
            -1.39186
          ],
          [
            -49.24069,
            -1.29595
          ],
          [
            -49.41765,
            -1.20018
          ],
          [
            -49.59486,
            -1.10493
          ],
          [
            -49.77251,
            -1.01058
          ],
          [
            -49.95075,
            -0.91746
          ],
          [
            -50.12972,
            -0.82582
          ],
          [
            -50.3095,
            -0.73586
          ],
          [
            -50.49015,
            -0.64769
          ],
          [
            -50.67168,
            -0.56131
          ],
          [
            -50.85404,
            -0.47666
          ],
          [
            -51.05,
            -0.42
          ]
        ]
      }
    },
    {
      "type": "Feature",
      "properties": {
        "id": "corridor-madeira",
        "name": "Madeira grain/fuel corridor",
        "kind": "corridor",
        "corridorId": "madeira",
        "classification": "madeira",
        "sourceType": "official-inspired",
        "sourceInspiration": "ANTAQ fluxos Madeira",
        "sourceNotes": "Geometria fictícia determinística; não substitui shapefile oficial.",
        "confidence": "medium",
        "mockLevel": "enriched",
        "lastReviewed": "2026-05-19",
        "visualPurpose": "navigable-corridor",
        "waterwayFamily": "madeira",
        "region": "Arco Norte",
        "navigability": "class-iii-mock",
        "navigabilityRisk": "high",
        "dredgingPriority": "high",
        "drySeasonRisk": "high",
        "cargoProfiles": "grains,fuel",
        "strategicRole": "export-graos-combustivel",
        "visualPriority": "high",
        "importance": "high"
      },
      "geometry": {
        "type": "LineString",
        "coordinates": [
          [
            -58.95565,
            -2.29413
          ],
          [
            -58.99599,
            -2.28623
          ],
          [
            -59.03575,
            -2.27687
          ],
          [
            -59.07477,
            -2.26569
          ],
          [
            -59.11296,
            -2.25241
          ],
          [
            -59.15027,
            -2.23692
          ],
          [
            -59.1867,
            -2.21926
          ],
          [
            -59.22234,
            -2.19961
          ],
          [
            -59.25731,
            -2.17827
          ],
          [
            -59.29178,
            -2.1557
          ],
          [
            -59.32596,
            -2.13239
          ],
          [
            -59.36007,
            -2.10892
          ],
          [
            -59.40387,
            -2.06905
          ],
          [
            -59.33758,
            -2.05769
          ],
          [
            -59.271,
            -2.04865
          ],
          [
            -59.20413,
            -2.04197
          ],
          [
            -59.13697,
            -2.03755
          ],
          [
            -59.06957,
            -2.03511
          ],
          [
            -59.00197,
            -2.03425
          ],
          [
            -58.93423,
            -2.03446
          ],
          [
            -58.86644,
            -2.03517
          ],
          [
            -58.79866,
            -2.03575
          ],
          [
            -58.73097,
            -2.03559
          ],
          [
            -58.66344,
            -2.03415
          ],
          [
            -58.60156,
            -1.9656
          ],
          [
            -58.50977,
            -1.96421
          ],
          [
            -58.41788,
            -1.96499
          ],
          [
            -58.32591,
            -1.96758
          ],
          [
            -58.23387,
            -1.97153
          ],
          [
            -58.1418,
            -1.97628
          ],
          [
            -58.04972,
            -1.98123
          ],
          [
            -57.95765,
            -1.98576
          ],
          [
            -57.86564,
            -1.98927
          ],
          [
            -57.77369,
            -1.99123
          ],
          [
            -57.68184,
            -1.99124
          ],
          [
            -57.59008,
            -1.98901
          ],
          [
            -57.50271,
            -1.92651
          ],
          [
            -57.38623,
            -1.92062
          ],
          [
            -57.26962,
            -1.91581
          ],
          [
            -57.15295,
            -1.91152
          ],
          [
            -57.03629,
            -1.90713
          ],
          [
            -56.91972,
            -1.90202
          ],
          [
            -56.80329,
            -1.89564
          ],
          [
            -56.68707,
            -1.88751
          ],
          [
            -56.57109,
            -1.87728
          ],
          [
            -56.45537,
            -1.86474
          ],
          [
            -56.33993,
            -1.84983
          ],
          [
            -56.22474,
            -1.83265
          ],
          [
            -56.1125,
            -1.79
          ]
        ]
      }
    },
    {
      "type": "Feature",
      "properties": {
        "id": "corridor-tapajos-teles-pires",
        "name": "Tapajós Miritituba–Santarém",
        "kind": "corridor",
        "corridorId": "tapajos-teles-pires",
        "classification": "tapajos-teles-pires",
        "sourceType": "official-inspired",
        "sourceInspiration": "ANTAQ Miritituba",
        "sourceNotes": "Geometria fictícia determinística; não substitui shapefile oficial.",
        "confidence": "medium",
        "mockLevel": "enriched",
        "lastReviewed": "2026-05-19",
        "visualPurpose": "navigable-corridor",
        "waterwayFamily": "tapajos",
        "region": "Arco Norte",
        "navigability": "class-iii-mock",
        "navigabilityRisk": "high",
        "dredgingPriority": "medium",
        "drySeasonRisk": "medium",
        "cargoProfiles": "grains",
        "strategicRole": "transbordo-soja",
        "visualPriority": "high",
        "importance": "high"
      },
      "geometry": {
        "type": "LineString",
        "coordinates": [
          [
            -55.35754,
            -2.25737
          ],
          [
            -55.33438,
            -2.24352
          ],
          [
            -55.31058,
            -2.23159
          ],
          [
            -55.28606,
            -2.22182
          ],
          [
            -55.26079,
            -2.21431
          ],
          [
            -55.23477,
            -2.20901
          ],
          [
            -55.2081,
            -2.20571
          ],
          [
            -55.18087,
            -2.20406
          ],
          [
            -55.15324,
            -2.20361
          ],
          [
            -55.12539,
            -2.20382
          ],
          [
            -55.09752,
            -2.20412
          ],
          [
            -55.06981,
            -2.20391
          ],
          [
            -55.06073,
            -2.14722
          ],
          [
            -55.01501,
            -2.13187
          ],
          [
            -54.96855,
            -2.11878
          ],
          [
            -54.92139,
            -2.10782
          ],
          [
            -54.87363,
            -2.09871
          ],
          [
            -54.8254,
            -2.09105
          ],
          [
            -54.77685,
            -2.08435
          ],
          [
            -54.72818,
            -2.07802
          ],
          [
            -54.67957,
            -2.07149
          ],
          [
            -54.63122,
            -2.06418
          ],
          [
            -54.5833,
            -2.05556
          ],
          [
            -54.53595,
            -2.0452
          ],
          [
            -54.50238,
            -1.96903
          ],
          [
            -54.39365,
            -1.96592
          ],
          [
            -54.28478,
            -1.96456
          ],
          [
            -54.17581,
            -1.96448
          ],
          [
            -54.06679,
            -1.96512
          ],
          [
            -53.95775,
            -1.96586
          ],
          [
            -53.84876,
            -1.96609
          ],
          [
            -53.73985,
            -1.96522
          ],
          [
            -53.63107,
            -1.96275
          ],
          [
            -53.52244,
            -1.95827
          ],
          [
            -53.41398,
            -1.95153
          ],
          [
            -53.30571,
            -1.94241
          ],
          [
            -53.20092,
            -1.88507
          ],
          [
            -53.11966,
            -1.88875
          ],
          [
            -53.03836,
            -1.89286
          ],
          [
            -52.95708,
            -1.89677
          ],
          [
            -52.87585,
            -1.89989
          ],
          [
            -52.7947,
            -1.90164
          ],
          [
            -52.71367,
            -1.90158
          ],
          [
            -52.63277,
            -1.89937
          ],
          [
            -52.55201,
            -1.89482
          ],
          [
            -52.4714,
            -1.88789
          ],
          [
            -52.39093,
            -1.87872
          ],
          [
            -52.31058,
            -1.86759
          ],
          [
            -52.23125,
            -1.84
          ]
        ]
      }
    },
    {
      "type": "Feature",
      "properties": {
        "id": "corridor-tocantins-araguaia",
        "name": "Tocantins-Araguaia / Pará",
        "kind": "corridor",
        "corridorId": "tocantins-araguaia",
        "classification": "tocantins-araguaia",
        "sourceType": "official-inspired",
        "sourceInspiration": "BIT Tocantins-Araguaia",
        "sourceNotes": "Geometria fictícia determinística; não substitui shapefile oficial.",
        "confidence": "medium",
        "mockLevel": "enriched",
        "lastReviewed": "2026-05-19",
        "visualPurpose": "navigable-corridor",
        "waterwayFamily": "tocantins-araguaia",
        "region": "Arco Norte",
        "navigability": "class-iii-mock",
        "navigabilityRisk": "high",
        "dredgingPriority": "critical",
        "drySeasonRisk": "critical",
        "cargoProfiles": "grains,ore",
        "strategicRole": "grains-tocantins",
        "visualPriority": "high",
        "importance": "high"
      },
      "geometry": {
        "type": "LineString",
        "coordinates": [
          [
            -51.72962,
            -1.96999
          ],
          [
            -51.70306,
            -1.96239
          ],
          [
            -51.67616,
            -1.95707
          ],
          [
            -51.64889,
            -1.95411
          ],
          [
            -51.62127,
            -1.95342
          ],
          [
            -51.59334,
            -1.95477
          ],
          [
            -51.56515,
            -1.95779
          ],
          [
            -51.53678,
            -1.96197
          ],
          [
            -51.50832,
            -1.96676
          ],
          [
            -51.47986,
            -1.97155
          ],
          [
            -51.45149,
            -1.97571
          ],
          [
            -51.42331,
            -1.9787
          ],
          [
            -51.41035,
            -1.91687
          ],
          [
            -51.34299,
            -1.89828
          ],
          [
            -51.27496,
            -1.8818
          ],
          [
            -51.20637,
            -1.86712
          ],
          [
            -51.13734,
            -1.85383
          ],
          [
            -51.06805,
            -1.84142
          ],
          [
            -50.99865,
            -1.8293
          ],
          [
            -50.92935,
            -1.8169
          ],
          [
            -50.86033,
            -1.80363
          ],
          [
            -50.79173,
            -1.78897
          ],
          [
            -50.7237,
            -1.77251
          ],
          [
            -50.65632,
            -1.75395
          ],
          [
            -50.59419,
            -1.67579
          ],
          [
            -50.57504,
            -1.6878
          ],
          [
            -50.55617,
            -1.70099
          ],
          [
            -50.53745,
            -1.71479
          ],
          [
            -50.51873,
            -1.7286
          ],
          [
            -50.49987,
            -1.74183
          ],
          [
            -50.48074,
            -1.75392
          ],
          [
            -50.46121,
            -1.76437
          ],
          [
            -50.44121,
            -1.77282
          ],
          [
            -50.42067,
            -1.77903
          ],
          [
            -50.39957,
            -1.78293
          ],
          [
            -50.37793,
            -1.78458
          ],
          [
            -50.35214,
            -1.75555
          ],
          [
            -50.30652,
            -1.74378
          ],
          [
            -50.26102,
            -1.73176
          ],
          [
            -50.21591,
            -1.71894
          ],
          [
            -50.17142,
            -1.70483
          ],
          [
            -50.12774,
            -1.68902
          ],
          [
            -50.08501,
            -1.67124
          ],
          [
            -50.0433,
            -1.65133
          ],
          [
            -50.00261,
            -1.62928
          ],
          [
            -49.96289,
            -1.60524
          ],
          [
            -49.92399,
            -1.57948
          ],
          [
            -49.88572,
            -1.55239
          ],
          [
            -49.85166,
            -1.53696
          ],
          [
            -49.74143,
            -1.55509
          ],
          [
            -49.63104,
            -1.57157
          ],
          [
            -49.52046,
            -1.58601
          ],
          [
            -49.40965,
            -1.59816
          ],
          [
            -49.29861,
            -1.60795
          ],
          [
            -49.18735,
            -1.61543
          ],
          [
            -49.07588,
            -1.62084
          ],
          [
            -48.96425,
            -1.62454
          ],
          [
            -48.85249,
            -1.62703
          ],
          [
            -48.74068,
            -1.62886
          ],
          [
            -48.62886,
            -1.63066
          ],
          [
            -48.51875,
            -1.65
          ]
        ]
      }
    },
    {
      "type": "Feature",
      "properties": {
        "id": "corridor-barra-norte",
        "name": "Belém–Barcarena / Vila do Conde",
        "kind": "corridor",
        "corridorId": "barra-norte",
        "classification": "barra-norte",
        "sourceType": "official-inspired",
        "sourceInspiration": "ANTAQ portos organizados PA",
        "sourceNotes": "Geometria fictícia determinística; não substitui shapefile oficial.",
        "confidence": "medium",
        "mockLevel": "enriched",
        "lastReviewed": "2026-05-19",
        "visualPurpose": "navigable-corridor",
        "waterwayFamily": "para-estuario",
        "region": "Arco Norte",
        "navigability": "class-iii-mock",
        "navigabilityRisk": "medium",
        "dredgingPriority": "medium",
        "drySeasonRisk": "medium",
        "cargoProfiles": "general,bulk",
        "strategicRole": "hub-estuarino-export",
        "visualPriority": "high",
        "referenceContext": "Estuário Belém-Barcarena-Vila do Conde",
        "importance": "high"
      },
      "geometry": {
        "type": "LineString",
        "coordinates": [
          [
            -48.51971,
            -1.65985
          ],
          [
            -48.63159,
            -1.65866
          ],
          [
            -48.74334,
            -1.65615
          ],
          [
            -48.85491,
            -1.65174
          ],
          [
            -48.96624,
            -1.645
          ],
          [
            -49.07732,
            -1.63564
          ],
          [
            -49.18814,
            -1.62357
          ],
          [
            -49.2987,
            -1.60888
          ],
          [
            -49.40903,
            -1.59181
          ],
          [
            -49.51917,
            -1.57281
          ],
          [
            -49.62918,
            -1.55242
          ],
          [
            -49.73911,
            -1.5313
          ],
          [
            -49.85793,
            -1.48969
          ],
          [
            -49.80512,
            -1.47033
          ],
          [
            -49.75168,
            -1.45339
          ],
          [
            -49.69755,
            -1.43906
          ],
          [
            -49.64275,
            -1.42734
          ],
          [
            -49.5873,
            -1.41809
          ],
          [
            -49.53129,
            -1.41094
          ],
          [
            -49.47486,
            -1.40544
          ],
          [
            -49.41815,
            -1.40099
          ],
          [
            -49.36134,
            -1.39693
          ],
          [
            -49.30461,
            -1.39256
          ],
          [
            -49.24814,
            -1.38722
          ],
          [
            -49.1987,
            -1.31003
          ],
          [
            -49.12207,
            -1.31368
          ],
          [
            -49.04552,
            -1.31997
          ],
          [
            -48.96906,
            -1.32865
          ],
          [
            -48.89266,
            -1.33929
          ],
          [
            -48.8163,
            -1.35135
          ],
          [
            -48.73997,
            -1.36417
          ],
          [
            -48.66364,
            -1.37704
          ],
          [
            -48.58729,
            -1.38927
          ],
          [
            -48.5109,
            -1.40018
          ],
          [
            -48.43445,
            -1.4092
          ],
          [
            -48.35792,
            -1.41589
          ],
          [
            -48.27073,
            -1.34902
          ],
          [
            -48.2505,
            -1.36258
          ],
          [
            -48.23076,
            -1.37778
          ],
          [
            -48.21134,
            -1.39404
          ],
          [
            -48.19204,
            -1.41071
          ],
          [
            -48.17266,
            -1.4271
          ],
          [
            -48.15299,
            -1.44255
          ],
          [
            -48.13287,
            -1.45647
          ],
          [
            -48.11214,
            -1.46836
          ],
          [
            -48.0907,
            -1.47786
          ],
          [
            -48.06848,
            -1.48478
          ],
          [
            -48.04549,
            -1.4891
          ],
          [
            -48.0214,
            -1.45272
          ],
          [
            -47.99571,
            -1.43758
          ],
          [
            -47.96996,
            -1.42249
          ],
          [
            -47.9447,
            -1.407
          ],
          [
            -47.92043,
            -1.39069
          ],
          [
            -47.89761,
            -1.3732
          ],
          [
            -47.87659,
            -1.35424
          ],
          [
            -47.85758,
            -1.33364
          ],
          [
            -47.84069,
            -1.3113
          ],
          [
            -47.82585,
            -1.28729
          ],
          [
            -47.81287,
            -1.26176
          ],
          [
            -47.80143,
            -1.23497
          ],
          [
            -47.8,
            -1.2
          ]
        ]
      }
    }
  ]
}
