{
  "type": "FeatureCollection",
  "features": [
    {
      "type": "Feature",
      "properties": {
        "id": "route-cargo-001",
        "name": "Belém → Santarém (mock)",
        "kind": "route",
        "cargoId": "CARGO-001",
        "corridorId": "amazonas"
      },
      "geometry": {
        "type": "LineString",
        "coordinates": [
          [-48.51875, -1.65],
          [-48.77187, -1.66543],
          [-49.025, -1.68156],
          [-49.27812, -1.69816],
          [-49.53125, -1.715],
          [-49.78437, -1.73184],
          [-50.0375, -1.74844],
          [-50.29062, -1.76457],
          [-50.54375, -1.78],
          [-50.78929, -1.79078],
          [-51.021, -1.80062],
          [-51.24083, -1.80953],
          [-51.45078, -1.8175],
          [-51.65282, -1.82453],
          [-51.84893, -1.83062],
          [-52.04108, -1.83578],
          [-52.23125, -1.84]
        ]
      }
    },
    {
      "type": "Feature",
      "properties": {
        "id": "route-cargo-002",
        "name": "Manaus → Belém (mock)",
        "kind": "route",
        "cargoId": "CARGO-002",
        "corridorId": "madeira"
      },
      "geometry": {
        "type": "LineString",
        "coordinates": [
          [-56.1125, -1.79],
          [-55.47969, -1.77502],
          [-54.84687, -1.76016],
          [-54.21406, -1.74553],
          [-53.58125, -1.73125],
          [-52.94844, -1.71744],
          [-52.31562, -1.70422],
          [-51.68281, -1.6917],
          [-51.05, -1.68],
          [-50.62977, -1.67297],
          [-50.25107, -1.66687],
          [-49.90797, -1.66172],
          [-49.59453, -1.6575],
          [-49.30482, -1.65422],
          [-49.03291, -1.65187],
          [-48.77286, -1.65047],
          [-48.51875, -1.65]
        ]
      }
    },
    {
      "type": "Feature",
      "properties": {
        "id": "route-cargo-004",
        "name": "Marabá → Vila do Conde (mock)",
        "kind": "route",
        "cargoId": "CARGO-004",
        "corridorId": "tocantins-araguaia"
      },
      "geometry": {
        "type": "LineString",
        "coordinates": [
          [-51.725, -2.0],
          [-50.375, -1.9],
          [-49.3625, -1.7],
          [-48.0125, -1.46]
        ]
      }
    }
  ]
}
